STARLINK-37018          
1 68103U 26044C   26074.58335648 -.01883119  10365-2 -42354-2 0  9995
2 68103  97.2819  34.9079 0001633 111.0254 148.4737 15.97829647  2290
STARLINK-37041          
1 68104U 26044D   26074.58335648 -.01885625  10422-2 -41784-2 0  9990
2 68104  97.2820  34.9100 0001614 107.5594 156.5748 15.98100261  2291
STARLINK-37021          
1 68105U 26044E   26074.58335648 -.01885992  10442-2 -41486-2 0  9999
2 68105  97.2815  34.9105 0001601 109.5307 156.5795 15.98233247  2294
STARLINK-37024          
1 68106U 26044F   26074.58335648 -.01877409  10368-2 -41003-2 0  9996
2 68106  97.2816  34.9114 0001622 111.3175 157.0130 15.98361777  2292
STARLINK-37005          
1 68107U 26044G   26074.58335648 -.01884572  10396-2 -42071-2 0  9993
2 68107  97.2820  34.9084 0001653 112.9115 148.8841 15.97965564  2299
STARLINK-37017          
1 68108U 26044H   26074.58335648 -.01876047  10369-2 -40670-2 0  9995
2 68108  97.2817  34.9128 0001591 111.5945 159.2474 15.98495653  2298
STARLINK-36833          
1 68109U 26044J   26074.58335648 -.01871128  10349-2 -39968-2 0  9997
2 68109  97.2809  34.9144 0001573 113.8966 161.5383 15.98761437  2343
STARLINK-36830          
1 68110U 26044K   26074.58335648 -.01886111  10492-2 -40564-2 0  9990
2 68110  97.2812  34.9134 0001659 111.8704 161.5120 15.98640004  2346
STARLINK-36791          
1 68111U 26044L   26074.58335648 -.01879203  10451-2 -39827-2 0  9990
2 68111  97.2812  34.9157 0001568 109.3767 168.4662 15.98903263  2292
STARLINK-36893          
1 68112U 26044M   26074.58335648 -.01874249  10414-2 -39438-2 0  9993
2 68112  97.2809  34.9164 0001553 109.2680 170.7299 15.99031492  2349
STARLINK-36937          
1 68113U 26044N   26074.58335648 -.01865840  10357-2 -38692-2 0  9998
2 68113  97.2810  34.9184 0001545 115.6517 168.8561 15.99292076  2296
STARLINK-36229          
1 68114U 26044P   26074.58335648 -.01866296  10347-2 -38976-2 0  9999
2 68114  97.2804  34.9167 0001600 114.1208 168.2427 15.99165305  2349
STARLINK-36392          
1 68115U 26044Q   26074.58335648 -.01868979  10407-2 -38447-2 0  9990
2 68115  97.2805  34.9192 0001566 117.2687 169.8838 15.99435748  2349
STARLINK-36805          
1 68116U 26044R   26074.58335648 -.01883355  10577-2 -38412-2 0  9996
2 68116  97.2803  34.9204 0001540 112.7895 177.3305 15.99589696  2340
STARLINK-36844          
1 68117U 26044S   26074.58335648 -.01879659  10554-2 -38058-2 0  9990
2 68117  97.2800  34.9212 0001446 110.2614 182.0577 15.99719525  2298
STARLINK-36789          
1 68118U 26044T   26074.58335648 -.01902219  10813-2 -38207-2 0  9994
2 68118  97.2802  34.9234 0001380 106.2369 190.9519 15.99864380  2298
