[{"OBJECT_NAME":"STARLINK-37018","OBJECT_ID":"2026-044C","EPOCH":"2026-03-15T14:00:01.999872","MEAN_MOTION":15.97829647,"ECCENTRICITY":0.00016333,"INCLINATION":97.2819,"RA_OF_ASC_NODE":34.9079,"ARG_OF_PERICENTER":111.0254,"MEAN_ANOMALY":148.4737,"EPHEMERIS_TYPE":0,"CLASSIFICATION_TYPE":"U","NORAD_CAT_ID":68103,"ELEMENT_SET_NO":999,"REV_AT_EPOCH":229,"BSTAR":-0.0042354062,"MEAN_MOTION_DOT":-0.01883119,"MEAN_MOTION_DDOT":0.0010364584},{"OBJECT_NAME":"STARLINK-37041","OBJECT_ID":"2026-044D","EPOCH":"2026-03-15T14:00:01.999872","MEAN_MOTION":15.98100261,"ECCENTRICITY":0.00016141,"INCLINATION":97.282,"RA_OF_ASC_NODE":34.91,"ARG_OF_PERICENTER":107.5594,"MEAN_ANOMALY":156.5748,"EPHEMERIS_TYPE":0,"CLASSIFICATION_TYPE":"U","NORAD_CAT_ID":68104,"ELEMENT_SET_NO":999,"REV_AT_EPOCH":229,"BSTAR":-0.0041783868,"MEAN_MOTION_DOT":-0.01885625,"MEAN_MOTION_DDOT":0.0010422357},{"OBJECT_NAME":"STARLINK-37021","OBJECT_ID":"2026-044E","EPOCH":"2026-03-15T14:00:01.999872","MEAN_MOTION":15.98233247,"ECCENTRICITY":0.00016013,"INCLINATION":97.2815,"RA_OF_ASC_NODE":34.9105,"ARG_OF_PERICENTER":109.5307,"MEAN_ANOMALY":156.5795,"EPHEMERIS_TYPE":0,"CLASSIFICATION_TYPE":"U","NORAD_CAT_ID":68105,"ELEMENT_SET_NO":999,"REV_AT_EPOCH":229,"BSTAR":-0.0041486499,"MEAN_MOTION_DOT":-0.01885992,"MEAN_MOTION_DDOT":0.0010441874},{"OBJECT_NAME":"STARLINK-37024","OBJECT_ID":"2026-044F","EPOCH":"2026-03-15T14:00:01.999872","MEAN_MOTION":15.98361777,"ECCENTRICITY":0.00016229,"INCLINATION":97.2816,"RA_OF_ASC_NODE":34.9114,"ARG_OF_PERICENTER":111.3175,"MEAN_ANOMALY":157.013,"EPHEMERIS_TYPE":0,"CLASSIFICATION_TYPE":"U","NORAD_CAT_ID":68106,"ELEMENT_SET_NO":999,"REV_AT_EPOCH":229,"BSTAR":-0.0041002892,"MEAN_MOTION_DOT":-0.01877409,"MEAN_MOTION_DDOT":0.0010367527},{"OBJECT_NAME":"STARLINK-37005","OBJECT_ID":"2026-044G","EPOCH":"2026-03-15T14:00:01.999872","MEAN_MOTION":15.97965564,"ECCENTRICITY":0.00016536,"INCLINATION":97.282,"RA_OF_ASC_NODE":34.9084,"ARG_OF_PERICENTER":112.9115,"MEAN_ANOMALY":148.8841,"EPHEMERIS_TYPE":0,"CLASSIFICATION_TYPE":"U","NORAD_CAT_ID":68107,"ELEMENT_SET_NO":999,"REV_AT_EPOCH":229,"BSTAR":-0.0042071148,"MEAN_MOTION_DOT":-0.01884572,"MEAN_MOTION_DDOT":0.001039555},{"OBJECT_NAME":"STARLINK-37017","OBJECT_ID":"2026-044H","EPOCH":"2026-03-15T14:00:01.999872","MEAN_MOTION":15.98495653,"ECCENTRICITY":0.00015917,"INCLINATION":97.2817,"RA_OF_ASC_NODE":34.9128,"ARG_OF_PERICENTER":111.5945,"MEAN_ANOMALY":159.2474,"EPHEMERIS_TYPE":0,"CLASSIFICATION_TYPE":"U","NORAD_CAT_ID":68108,"ELEMENT_SET_NO":999,"REV_AT_EPOCH":229,"BSTAR":-0.0040670345,"MEAN_MOTION_DOT":-0.01876047,"MEAN_MOTION_DDOT":0.0010369101},{"OBJECT_NAME":"STARLINK-36833","OBJECT_ID":"2026-044J","EPOCH":"2026-03-15T14:00:01.999872","MEAN_MOTION":15.98761437,"ECCENTRICITY":0.00015731,"INCLINATION":97.2809,"RA_OF_ASC_NODE":34.9144,"ARG_OF_PERICENTER":113.8966,"MEAN_ANOMALY":161.5383,"EPHEMERIS_TYPE":0,"CLASSIFICATION_TYPE":"U","NORAD_CAT_ID":68109,"ELEMENT_SET_NO":999,"REV_AT_EPOCH":234,"BSTAR":-0.0039968433,"MEAN_MOTION_DOT":-0.01871128,"MEAN_MOTION_DDOT":0.0010349159},{"OBJECT_NAME":"STARLINK-36830","OBJECT_ID":"2026-044K","EPOCH":"2026-03-15T14:00:01.999872","MEAN_MOTION":15.98640004,"ECCENTRICITY":0.00016592,"INCLINATION":97.2812,"RA_OF_ASC_NODE":34.9134,"ARG_OF_PERICENTER":111.8704,"MEAN_ANOMALY":161.512,"EPHEMERIS_TYPE":0,"CLASSIFICATION_TYPE":"U","NORAD_CAT_ID":68110,"ELEMENT_SET_NO":999,"REV_AT_EPOCH":234,"BSTAR":-0.0040564391,"MEAN_MOTION_DOT":-0.01886111,"MEAN_MOTION_DDOT":0.0010491507},{"OBJECT_NAME":"STARLINK-36791","OBJECT_ID":"2026-044L","EPOCH":"2026-03-15T14:00:01.999872","MEAN_MOTION":15.98903263,"ECCENTRICITY":0.0001568,"INCLINATION":97.2812,"RA_OF_ASC_NODE":34.9157,"ARG_OF_PERICENTER":109.3767,"MEAN_ANOMALY":168.4662,"EPHEMERIS_TYPE":0,"CLASSIFICATION_TYPE":"U","NORAD_CAT_ID":68111,"ELEMENT_SET_NO":999,"REV_AT_EPOCH":229,"BSTAR":-0.0039827267,"MEAN_MOTION_DOT":-0.01879203,"MEAN_MOTION_DDOT":0.0010450512},{"OBJECT_NAME":"STARLINK-36893","OBJECT_ID":"2026-044M","EPOCH":"2026-03-15T14:00:01.999872","MEAN_MOTION":15.99031492,"ECCENTRICITY":0.00015533,"INCLINATION":97.2809,"RA_OF_ASC_NODE":34.9164,"ARG_OF_PERICENTER":109.268,"MEAN_ANOMALY":170.7299,"EPHEMERIS_TYPE":0,"CLASSIFICATION_TYPE":"U","NORAD_CAT_ID":68112,"ELEMENT_SET_NO":999,"REV_AT_EPOCH":234,"BSTAR":-0.0039438194,"MEAN_MOTION_DOT":-0.01874249,"MEAN_MOTION_DDOT":0.0010413881},{"OBJECT_NAME":"STARLINK-36937","OBJECT_ID":"2026-044N","EPOCH":"2026-03-15T14:00:01.999872","MEAN_MOTION":15.99292076,"ECCENTRICITY":0.00015456,"INCLINATION":97.281,"RA_OF_ASC_NODE":34.9184,"ARG_OF_PERICENTER":115.6517,"MEAN_ANOMALY":168.8561,"EPHEMERIS_TYPE":0,"CLASSIFICATION_TYPE":"U","NORAD_CAT_ID":68113,"ELEMENT_SET_NO":999,"REV_AT_EPOCH":229,"BSTAR":-0.003869159,"MEAN_MOTION_DOT":-0.0186584,"MEAN_MOTION_DDOT":0.0010356837},{"OBJECT_NAME":"STARLINK-36229","OBJECT_ID":"2026-044P","EPOCH":"2026-03-15T14:00:01.999872","MEAN_MOTION":15.99165305,"ECCENTRICITY":0.00016001,"INCLINATION":97.2804,"RA_OF_ASC_NODE":34.9167,"ARG_OF_PERICENTER":114.1208,"MEAN_ANOMALY":168.2427,"EPHEMERIS_TYPE":0,"CLASSIFICATION_TYPE":"U","NORAD_CAT_ID":68114,"ELEMENT_SET_NO":999,"REV_AT_EPOCH":234,"BSTAR":-0.0038976232,"MEAN_MOTION_DOT":-0.01866296,"MEAN_MOTION_DDOT":0.0010346529},{"OBJECT_NAME":"STARLINK-36392","OBJECT_ID":"2026-044Q","EPOCH":"2026-03-15T14:00:01.999872","MEAN_MOTION":15.99435748,"ECCENTRICITY":0.00015663,"INCLINATION":97.2805,"RA_OF_ASC_NODE":34.9192,"ARG_OF_PERICENTER":117.2687,"MEAN_ANOMALY":169.8838,"EPHEMERIS_TYPE":0,"CLASSIFICATION_TYPE":"U","NORAD_CAT_ID":68115,"ELEMENT_SET_NO":999,"REV_AT_EPOCH":234,"BSTAR":-0.0038446538,"MEAN_MOTION_DOT":-0.01868979,"MEAN_MOTION_DDOT":0.0010406957},{"OBJECT_NAME":"STARLINK-36805","OBJECT_ID":"2026-044R","EPOCH":"2026-03-15T14:00:01.999872","MEAN_MOTION":15.99589696,"ECCENTRICITY":0.00015408,"INCLINATION":97.2803,"RA_OF_ASC_NODE":34.9204,"ARG_OF_PERICENTER":112.7895,"MEAN_ANOMALY":177.3305,"EPHEMERIS_TYPE":0,"CLASSIFICATION_TYPE":"U","NORAD_CAT_ID":68116,"ELEMENT_SET_NO":999,"REV_AT_EPOCH":234,"BSTAR":-0.0038412412,"MEAN_MOTION_DOT":-0.01883355,"MEAN_MOTION_DDOT":0.001057749},{"OBJECT_NAME":"STARLINK-36844","OBJECT_ID":"2026-044S","EPOCH":"2026-03-15T14:00:01.999872","MEAN_MOTION":15.99719525,"ECCENTRICITY":0.00014469,"INCLINATION":97.28,"RA_OF_ASC_NODE":34.9212,"ARG_OF_PERICENTER":110.2614,"MEAN_ANOMALY":182.0577,"EPHEMERIS_TYPE":0,"CLASSIFICATION_TYPE":"U","NORAD_CAT_ID":68117,"ELEMENT_SET_NO":999,"REV_AT_EPOCH":229,"BSTAR":-0.0038057877,"MEAN_MOTION_DOT":-0.01879659,"MEAN_MOTION_DDOT":0.0010554205},{"OBJECT_NAME":"STARLINK-36789","OBJECT_ID":"2026-044T","EPOCH":"2026-03-15T14:00:01.999872","MEAN_MOTION":15.9986438,"ECCENTRICITY":0.00013804,"INCLINATION":97.2802,"RA_OF_ASC_NODE":34.9234,"ARG_OF_PERICENTER":106.2369,"MEAN_ANOMALY":190.9519,"EPHEMERIS_TYPE":0,"CLASSIFICATION_TYPE":"U","NORAD_CAT_ID":68118,"ELEMENT_SET_NO":999,"REV_AT_EPOCH":229,"BSTAR":-0.0038207172,"MEAN_MOTION_DOT":-0.01902219,"MEAN_MOTION_DDOT":0.0010813307}]
